{
  "type": "FeatureCollection",
  "features": [
    {
      "type": "Feature",
      "properties": {
        "norad_id": 43567,
        "name": "GSAT0220 (GALILEO 24)",
        "group": "gnss",
        "lat": -39.63159063273896,
        "lon": -45.83335608276974,
        "alt_km": 23209.97365738562,
        "timestamp": "2025-12-27T18:38:03.721502+00:00",
        "meta_object_name": "GSAT0220 (GALILEO 24)",
        "meta_object_id": "2018-060D",
        "meta_epoch": "2025-12-23T03:56:18.956256",
        "meta_mean_motion": 1.70475727,
        "meta_eccentricity": 0.00061193,
        "meta_inclination": 57.2279,
        "meta_ra_of_asc_node": 346.5416,
        "meta_arg_of_pericenter": 288.3355,
        "meta_mean_anomaly": 71.6054,
        "meta_ephemeris_type": 0,
        "meta_classification_type": "U",
        "meta_norad_cat_id": 43567,
        "meta_element_set_no": 999,
        "meta_rev_at_epoch": 4617,
        "meta_bstar": 0,
        "meta_mean_motion_dot": -6.3e-07,
        "meta_mean_motion_ddot": 0,
        "tle_line1": "1 43567U 18060D   25357.16410829 -.00000063  00000+0  00000+0 0  9991",
        "tle_line2": "2 43567  57.2279 346.5416 0006119 288.3355  71.6054  1.70475727 46170"
      },
      "geometry": {
        "type": "Point",
        "coordinates": [
          -45.83335608276974,
          -39.63159063273896
        ]
      }
    },
    {
      "type": "Feature",
      "properties": {
        "norad_id": 43581,
        "name": "BEIDOU-3 M5 (C23)",
        "group": "gnss",
        "lat": -22.364119627809227,
        "lon": 170.7827187278518,
        "alt_km": 21526.583618177847,
        "timestamp": "2025-12-27T18:38:03.721514+00:00",
        "meta_object_name": "BEIDOU-3 M5 (C23)",
        "meta_object_id": "2018-062A",
        "meta_epoch": "2025-12-26T04:58:35.647392",
        "meta_mean_motion": 1.86228653,
        "meta_eccentricity": 0.00019141,
        "meta_inclination": 54.0903,
        "meta_ra_of_asc_node": 188.1851,
        "meta_arg_of_pericenter": 0.5751,
        "meta_mean_anomaly": 359.4593,
        "meta_ephemeris_type": 0,
        "meta_classification_type": "U",
        "meta_norad_cat_id": 43581,
        "meta_element_set_no": 999,
        "meta_rev_at_epoch": 5041,
        "meta_bstar": 0,
        "meta_mean_motion_dot": 1.19e-06,
        "meta_mean_motion_ddot": 0,
        "tle_line1": "1 43581U 18062A   25360.20735703  .00000119  00000+0  00000+0 0  9990",
        "tle_line2": "2 43581  54.0903 188.1851 0001914   0.5751 359.4593  1.86228653 50418"
      },
      "geometry": {
        "type": "Point",
        "coordinates": [
          170.7827187278518,
          -22.364119627809227
        ]
      }
    },
    {
      "type": "Feature",
      "properties": {
        "norad_id": 43582,
        "name": "BEIDOU-3 M6 (C24)",
        "group": "gnss",
        "lat": 46.66252684242928,
        "lon": -121.68319218026316,
        "alt_km": 21501.302625276116,
        "timestamp": "2025-12-27T18:38:03.721525+00:00",
        "meta_object_name": "BEIDOU-3 M6 (C24)",
        "meta_object_id": "2018-062B",
        "meta_epoch": "2025-12-23T22:08:28.739040",
        "meta_mean_motion": 1.86229712,
        "meta_eccentricity": 0.00078704,
        "meta_inclination": 54.0895,
        "meta_ra_of_asc_node": 188.252,
        "meta_arg_of_pericenter": 49.2706,
        "meta_mean_anomaly": 310.8346,
        "meta_ephemeris_type": 0,
        "meta_classification_type": "U",
        "meta_norad_cat_id": 43582,
        "meta_element_set_no": 999,
        "meta_rev_at_epoch": 5037,
        "meta_bstar": 0,
        "meta_mean_motion_dot": 1e-06,
        "meta_mean_motion_ddot": 0,
        "tle_line1": "1 43582U 18062B   25357.92255485  .00000100  00000+0  00000+0 0  9990",
        "tle_line2": "2 43582  54.0895 188.2520 0007870  49.2706 310.8346  1.86229712 50379"
      },
      "geometry": {
        "type": "Point",
        "coordinates": [
          -121.68319218026316,
          46.66252684242928
        ]
      }
    },
    {
      "type": "Feature",
      "properties": {
        "norad_id": 43602,
        "name": "BEIDOU-3 M12 (C26)",
        "group": "gnss",
        "lat": 51.32864579121307,
        "lon": -57.64544283837402,
        "alt_km": 21510.849779513766,
        "timestamp": "2025-12-27T18:38:03.721537+00:00",
        "meta_object_name": "BEIDOU-3 M12 (C26)",
        "meta_object_id": "2018-067A",
        "meta_epoch": "2025-12-27T01:58:26.323104",
        "meta_mean_motion": 1.86227812,
        "meta_eccentricity": 0.0009212,
        "meta_inclination": 54.1838,
        "meta_ra_of_asc_node": 186.8764,
        "meta_arg_of_pericenter": 41.9592,
        "meta_mean_anomaly": 318.1446,
        "meta_ephemeris_type": 0,
        "meta_classification_type": "U",
        "meta_norad_cat_id": 43602,
        "meta_element_set_no": 999,
        "meta_rev_at_epoch": 4991,
        "meta_bstar": 0,
        "meta_mean_motion_dot": 1.28e-06,
        "meta_mean_motion_ddot": 0,
        "tle_line1": "1 43602U 18067A   25361.08224911  .00000128  00000+0  00000+0 0  9990",
        "tle_line2": "2 43602  54.1838 186.8764 0009212  41.9592 318.1446  1.86227812 49917"
      },
      "geometry": {
        "type": "Point",
        "coordinates": [
          -57.64544283837402,
          51.32864579121307
        ]
      }
    },
    {
      "type": "Feature",
      "properties": {
        "norad_id": 43603,
        "name": "BEIDOU-3 M11 (C25)",
        "group": "gnss",
        "lat": 12.285248437710907,
        "lon": -164.12970164286853,
        "alt_km": 21512.548564021778,
        "timestamp": "2025-12-27T18:38:03.721549+00:00",
        "meta_object_name": "BEIDOU-3 M11 (C25)",
        "meta_object_id": "2018-067B",
        "meta_epoch": "2025-12-24T12:46:04.310976",
        "meta_mean_motion": 1.86227356,
        "meta_eccentricity": 0.00056287,
        "meta_inclination": 54.181,
        "meta_ra_of_asc_node": 186.927,
        "meta_arg_of_pericenter": 37.873,
        "meta_mean_anomaly": 322.1992,
        "meta_ephemeris_type": 0,
        "meta_classification_type": "U",
        "meta_norad_cat_id": 43603,
        "meta_element_set_no": 999,
        "meta_rev_at_epoch": 4989,
        "meta_bstar": 0,
        "meta_mean_motion_dot": 1.05e-06,
        "meta_mean_motion_ddot": 0,
        "tle_line1": "1 43603U 18067B   25358.53199434  .00000105  00000+0  00000+0 0  9993",
        "tle_line2": "2 43603  54.1810 186.9270 0005628  37.8730 322.1992  1.86227356 49897"
      },
      "geometry": {
        "type": "Point",
        "coordinates": [
          -164.12970164286853,
          12.285248437710907
        ]
      }
    },
    {
      "type": "Feature",
      "properties": {
        "norad_id": 43622,
        "name": "BEIDOU-3 M13 (C32)",
        "group": "gnss",
        "lat": 35.705422590849395,
        "lon": 96.75972900031545,
        "alt_km": 21528.838605503464,
        "timestamp": "2025-12-27T18:38:03.721563+00:00",
        "meta_object_name": "BEIDOU-3 M13 (C32)",
        "meta_object_id": "2018-072A",
        "meta_epoch": "2025-12-26T15:16:14.846880",
        "meta_mean_motion": 1.86231061,
        "meta_eccentricity": 0.00064836,
        "meta_inclination": 56.4704,
        "meta_ra_of_asc_node": 68.3605,
        "meta_arg_of_pericenter": 297.9888,
        "meta_mean_anomaly": 61.997,
        "meta_ephemeris_type": 0,
        "meta_classification_type": "U",
        "meta_norad_cat_id": 43622,
        "meta_element_set_no": 999,
        "meta_rev_at_epoch": 4944,
        "meta_bstar": 0,
        "meta_mean_motion_dot": -3.2e-07,
        "meta_mean_motion_ddot": 0,
        "tle_line1": "1 43622U 18072A   25360.63628295 -.00000032  00000+0  00000+0 0  9996",
        "tle_line2": "2 43622  56.4704  68.3605 0006483 297.9888  61.9970  1.86231061 49446"
      },
      "geometry": {
        "type": "Point",
        "coordinates": [
          96.75972900031545,
          35.705422590849395
        ]
      }
    },
    {
      "type": "Feature",
      "properties": {
        "norad_id": 43623,
        "name": "BEIDOU-3 M14 (C33)",
        "group": "gnss",
        "lat": 36.38859613105269,
        "lon": -140.8776714452523,
        "alt_km": 21533.548592288145,
        "timestamp": "2025-12-27T18:38:03.721575+00:00",
        "meta_object_name": "BEIDOU-3 M14 (C33)",
        "meta_object_id": "2018-072B",
        "meta_epoch": "2025-12-26T12:02:31.218144",
        "meta_mean_motion": 1.86231056,
        "meta_eccentricity": 0.00036352,
        "meta_inclination": 56.4724,
        "meta_ra_of_asc_node": 68.3589,
        "meta_arg_of_pericenter": 326.7942,
        "meta_mean_anomaly": 33.2347,
        "meta_ephemeris_type": 0,
        "meta_classification_type": "U",
        "meta_norad_cat_id": 43623,
        "meta_element_set_no": 999,
        "meta_rev_at_epoch": 4943,
        "meta_bstar": 0,
        "meta_mean_motion_dot": -3.2e-07,
        "meta_mean_motion_ddot": 0,
        "tle_line1": "1 43623U 18072B   25360.50175021 -.00000032  00000+0  00000+0 0  9997",
        "tle_line2": "2 43623  56.4724  68.3589 0003635 326.7942  33.2347  1.86231056 49431"
      },
      "geometry": {
        "type": "Point",
        "coordinates": [
          -140.8776714452523,
          36.38859613105269
        ]
      }
    }
  ]
}